{"fetched_at":"2026-03-29T16:36:15Z","count":15609,"tles":[{"name":"STARLINK-31722","line1":"1 59549U 24074R   26087.81212545  .00002463  00000+0  98965-4 0  9995","line2":"2 59549  43.0000 235.1209 0001140 289.0887  70.9841 15.27585682108941","category":"Starlink"}]}