{
  "norad_id": 59549,
  "name": "STARLINK-31722",
  "history": [
    {
      "epoch": "2026-03-28T19:29:27.638880",
      "apogee_km": 483.81452986242857,
      "perigee_km": 482.24963441817454,
      "latitude_deg": -24.38742842459336,
      "longitude_deg": -147.1359568000771,
      "semi_major_axis_km": 6861.169082140302,
      "eccentricity": 0.00011404,
      "inclination_deg": 43.0,
      "raan_deg": 235.1209,
      "arg_perigee_deg": 289.0887,
      "mean_anomaly_deg": 70.9841,
      "mean_motion_rev_day": 15.27585682
    }
  ]
}